FLOCK 4G-34             
1 62650U 25009AT  26095.19823488  .00014620  00000+0  54016-3 0  9991
2 62650  97.3974 177.2727 0002181 162.9988 197.1325 15.27830248 67762
FLOCK 4G-21             
1 62651U 25009AU  26095.75165872  .00015889  00000+0  56350-3 0  9991
2 62651  97.4003 178.5313 0002133 164.7424 195.3880 15.29157935 67880
FLOCK 4G-31             
1 62652U 25009AV  26095.74008787  .00014034  00000+0  52081-3 0  9990
2 62652  97.3978 177.8032 0001763 158.5997 201.5316 15.27695241 67840
FLOCK 4G-4              
1 62659U 25009BC  26095.81513357  .00012141  00000+0  45394-3 0  9995
2 62659  97.3964 177.6279 0002292 184.0629 176.0592 15.27482541125458
FLOCK 4G-6              
1 62660U 25009BD  26095.76043622  .00016152  00000+0  58949-3 0  9990
2 62660  97.3954 177.6382 0002841 203.4820 156.6291 15.28212317125434
FLOCK 4G-2              
1 62661U 25009BE  26095.77304910  .00015122  00000+0  54807-3 0  9997
2 62661  97.4018 178.1605 0003760 201.0577 159.0508 15.28453629125469
FLOCK 4G-5              
1 62663U 25009BG  26095.74733569  .00011566  00000+0  40948-3 0  9991
2 62663  97.4035 178.4080 0003419 179.4885 180.6359 15.29287349 67869
FLOCK 4G-1              
1 62666U 25009BK  26095.74411221  .00013980  00000+0  51082-3 0  9995
2 62666  97.4032 178.1232 0004033 200.0470 160.0612 15.28202562 67844
FLOCK 4G-14             
1 62667U 25009BL  26095.81383909  .00012562  00000+0  46432-3 0  9993
2 62667  97.4036 178.0494 0004292 192.5175 167.5958 15.27846631 67847
FLOCK 4G-10             
1 62670U 25009BP  26095.76349498  .00014695  00000+0  54211-3 0  9999
2 62670  97.3936 177.4195 0003917 211.8390 148.2613 15.27875049125470
FLOCK 4G-36             
1 62675U 25009BU  26095.76111443  .00014132  00000+0  51990-3 0  9998
2 62675  97.4021 177.9153 0004368 199.8602 160.2468 15.27974985 67838
FLOCK 4G-15             
1 62678U 25009BX  26095.77099503  .00013878  00000+0  51031-3 0  9996
2 62678  97.4025 178.0585 0004633 196.2989 163.8102 15.27992581125482
FLOCK 4G-30             
1 62679U 25009BY  26095.82727348  .00011658  00000+0  42913-3 0  9991
2 62679  97.3936 177.5004 0003995 214.8222 145.2757 15.28003048125482
FLOCK 4G-18             
1 62680U 25009BZ  26095.76848134  .00013589  00000+0  49984-3 0  9993
2 62680  97.4023 177.8861 0004712 210.2214 149.8754 15.27987139125472
FLOCK 4G-17             
1 62681U 25009CA  26095.80757617  .00015770  00000+0  57739-3 0  9995
2 62681  97.3938 177.6643 0004121 212.9073 147.1911 15.28108503125498
FLOCK 4G-33             
1 62685U 25009CE  26095.74401820  .00008249  00000+0  33712-3 0  9992
2 62685  97.3959 176.4901 0004905 209.4999 150.5963 15.24615347 67762
