[{"OBJECT_NAME":"FLOCK 4G-34","OBJECT_ID":"2025-009AT","EPOCH":"2026-04-05T04:45:27.493632","MEAN_MOTION":15.27830248,"ECCENTRICITY":0.00021818,"INCLINATION":97.3974,"RA_OF_ASC_NODE":177.2727,"ARG_OF_PERICENTER":162.9988,"MEAN_ANOMALY":197.1325,"EPHEMERIS_TYPE":0,"CLASSIFICATION_TYPE":"U","NORAD_CAT_ID":62650,"ELEMENT_SET_NO":999,"REV_AT_EPOCH":6776,"BSTAR":0.00054015988,"MEAN_MOTION_DOT":0.0001462,"MEAN_MOTION_DDOT":0},{"OBJECT_NAME":"FLOCK 4G-21","OBJECT_ID":"2025-009AU","EPOCH":"2026-04-05T18:02:23.313408","MEAN_MOTION":15.29157935,"ECCENTRICITY":0.0002133,"INCLINATION":97.4003,"RA_OF_ASC_NODE":178.5313,"ARG_OF_PERICENTER":164.7424,"MEAN_ANOMALY":195.388,"EPHEMERIS_TYPE":0,"CLASSIFICATION_TYPE":"U","NORAD_CAT_ID":62651,"ELEMENT_SET_NO":999,"REV_AT_EPOCH":6788,"BSTAR":0.0005635,"MEAN_MOTION_DOT":0.00015889,"MEAN_MOTION_DDOT":0},{"OBJECT_NAME":"FLOCK 4G-31","OBJECT_ID":"2025-009AV","EPOCH":"2026-04-05T17:45:43.591968","MEAN_MOTION":15.27695241,"ECCENTRICITY":0.0001763,"INCLINATION":97.3978,"RA_OF_ASC_NODE":177.8032,"ARG_OF_PERICENTER":158.5997,"MEAN_ANOMALY":201.5316,"EPHEMERIS_TYPE":0,"CLASSIFICATION_TYPE":"U","NORAD_CAT_ID":62652,"ELEMENT_SET_NO":999,"REV_AT_EPOCH":6784,"BSTAR":0.00052081,"MEAN_MOTION_DOT":0.00014034,"MEAN_MOTION_DDOT":0},{"OBJECT_NAME":"FLOCK 4G-4","OBJECT_ID":"2025-009BC","EPOCH":"2026-04-05T19:33:47.540448","MEAN_MOTION":15.27482541,"ECCENTRICITY":0.0002292,"INCLINATION":97.3964,"RA_OF_ASC_NODE":177.6279,"ARG_OF_PERICENTER":184.0629,"MEAN_ANOMALY":176.0592,"EPHEMERIS_TYPE":0,"CLASSIFICATION_TYPE":"U","NORAD_CAT_ID":62659,"ELEMENT_SET_NO":999,"REV_AT_EPOCH":12545,"BSTAR":0.00045394,"MEAN_MOTION_DOT":0.00012141,"MEAN_MOTION_DDOT":0},{"OBJECT_NAME":"FLOCK 4G-6","OBJECT_ID":"2025-009BD","EPOCH":"2026-04-05T18:15:01.689408","MEAN_MOTION":15.28212317,"ECCENTRICITY":0.0002841,"INCLINATION":97.3954,"RA_OF_ASC_NODE":177.6382,"ARG_OF_PERICENTER":203.482,"MEAN_ANOMALY":156.6291,"EPHEMERIS_TYPE":0,"CLASSIFICATION_TYPE":"U","NORAD_CAT_ID":62660,"ELEMENT_SET_NO":999,"REV_AT_EPOCH":12543,"BSTAR":0.00058949,"MEAN_MOTION_DOT":0.00016152,"MEAN_MOTION_DDOT":0},{"OBJECT_NAME":"FLOCK 4G-2","OBJECT_ID":"2025-009BE","EPOCH":"2026-04-05T18:33:11.442240","MEAN_MOTION":15.28453629,"ECCENTRICITY":0.000376,"INCLINATION":97.4018,"RA_OF_ASC_NODE":178.1605,"ARG_OF_PERICENTER":201.0577,"MEAN_ANOMALY":159.0508,"EPHEMERIS_TYPE":0,"CLASSIFICATION_TYPE":"U","NORAD_CAT_ID":62661,"ELEMENT_SET_NO":999,"REV_AT_EPOCH":12546,"BSTAR":0.00054807,"MEAN_MOTION_DOT":0.00015122,"MEAN_MOTION_DDOT":0},{"OBJECT_NAME":"FLOCK 4G-5","OBJECT_ID":"2025-009BG","EPOCH":"2026-04-05T17:56:09.803616","MEAN_MOTION":15.29287349,"ECCENTRICITY":0.0003419,"INCLINATION":97.4035,"RA_OF_ASC_NODE":178.408,"ARG_OF_PERICENTER":179.4885,"MEAN_ANOMALY":180.6359,"EPHEMERIS_TYPE":0,"CLASSIFICATION_TYPE":"U","NORAD_CAT_ID":62663,"ELEMENT_SET_NO":999,"REV_AT_EPOCH":6786,"BSTAR":0.00040948,"MEAN_MOTION_DOT":0.00011566,"MEAN_MOTION_DDOT":0},{"OBJECT_NAME":"FLOCK 4G-1","OBJECT_ID":"2025-009BK","EPOCH":"2026-04-05T17:51:31.294944","MEAN_MOTION":15.28202562,"ECCENTRICITY":0.0004033,"INCLINATION":97.4032,"RA_OF_ASC_NODE":178.1232,"ARG_OF_PERICENTER":200.047,"MEAN_ANOMALY":160.0612,"EPHEMERIS_TYPE":0,"CLASSIFICATION_TYPE":"U","NORAD_CAT_ID":62666,"ELEMENT_SET_NO":999,"REV_AT_EPOCH":6784,"BSTAR":0.00051082,"MEAN_MOTION_DOT":0.0001398,"MEAN_MOTION_DDOT":0},{"OBJECT_NAME":"FLOCK 4G-14","OBJECT_ID":"2025-009BL","EPOCH":"2026-04-05T19:31:55.697376","MEAN_MOTION":15.27846631,"ECCENTRICITY":0.0004292,"INCLINATION":97.4036,"RA_OF_ASC_NODE":178.0494,"ARG_OF_PERICENTER":192.5175,"MEAN_ANOMALY":167.5958,"EPHEMERIS_TYPE":0,"CLASSIFICATION_TYPE":"U","NORAD_CAT_ID":62667,"ELEMENT_SET_NO":999,"REV_AT_EPOCH":6784,"BSTAR":0.00046432,"MEAN_MOTION_DOT":0.00012562,"MEAN_MOTION_DDOT":0},{"OBJECT_NAME":"FLOCK 4G-10","OBJECT_ID":"2025-009BP","EPOCH":"2026-04-05T18:19:25.966272","MEAN_MOTION":15.27875049,"ECCENTRICITY":0.0003917,"INCLINATION":97.3936,"RA_OF_ASC_NODE":177.4195,"ARG_OF_PERICENTER":211.839,"MEAN_ANOMALY":148.2613,"EPHEMERIS_TYPE":0,"CLASSIFICATION_TYPE":"U","NORAD_CAT_ID":62670,"ELEMENT_SET_NO":999,"REV_AT_EPOCH":12547,"BSTAR":0.00054211,"MEAN_MOTION_DOT":0.00014695,"MEAN_MOTION_DDOT":0},{"OBJECT_NAME":"FLOCK 4G-36","OBJECT_ID":"2025-009BU","EPOCH":"2026-04-05T18:16:00.286752","MEAN_MOTION":15.27974985,"ECCENTRICITY":0.0004368,"INCLINATION":97.4021,"RA_OF_ASC_NODE":177.9153,"ARG_OF_PERICENTER":199.8602,"MEAN_ANOMALY":160.2468,"EPHEMERIS_TYPE":0,"CLASSIFICATION_TYPE":"U","NORAD_CAT_ID":62675,"ELEMENT_SET_NO":999,"REV_AT_EPOCH":6783,"BSTAR":0.0005199,"MEAN_MOTION_DOT":0.00014132,"MEAN_MOTION_DDOT":0},{"OBJECT_NAME":"FLOCK 4G-15","OBJECT_ID":"2025-009BX","EPOCH":"2026-04-05T18:30:13.970592","MEAN_MOTION":15.27992581,"ECCENTRICITY":0.0004633,"INCLINATION":97.4025,"RA_OF_ASC_NODE":178.0585,"ARG_OF_PERICENTER":196.2989,"MEAN_ANOMALY":163.8102,"EPHEMERIS_TYPE":0,"CLASSIFICATION_TYPE":"U","NORAD_CAT_ID":62678,"ELEMENT_SET_NO":999,"REV_AT_EPOCH":12548,"BSTAR":0.00051031,"MEAN_MOTION_DOT":0.00013878,"MEAN_MOTION_DDOT":0},{"OBJECT_NAME":"FLOCK 4G-30","OBJECT_ID":"2025-009BY","EPOCH":"2026-04-05T19:51:16.428672","MEAN_MOTION":15.28003048,"ECCENTRICITY":0.0003995,"INCLINATION":97.3936,"RA_OF_ASC_NODE":177.5004,"ARG_OF_PERICENTER":214.8222,"MEAN_ANOMALY":145.2757,"EPHEMERIS_TYPE":0,"CLASSIFICATION_TYPE":"U","NORAD_CAT_ID":62679,"ELEMENT_SET_NO":999,"REV_AT_EPOCH":12548,"BSTAR":0.00042913,"MEAN_MOTION_DOT":0.00011658,"MEAN_MOTION_DDOT":0},{"OBJECT_NAME":"FLOCK 4G-18","OBJECT_ID":"2025-009BZ","EPOCH":"2026-04-05T18:26:36.787776","MEAN_MOTION":15.27987139,"ECCENTRICITY":0.0004712,"INCLINATION":97.4023,"RA_OF_ASC_NODE":177.8861,"ARG_OF_PERICENTER":210.2214,"MEAN_ANOMALY":149.8754,"EPHEMERIS_TYPE":0,"CLASSIFICATION_TYPE":"U","NORAD_CAT_ID":62680,"ELEMENT_SET_NO":999,"REV_AT_EPOCH":12547,"BSTAR":0.00049984,"MEAN_MOTION_DOT":0.00013589,"MEAN_MOTION_DDOT":0},{"OBJECT_NAME":"FLOCK 4G-17","OBJECT_ID":"2025-009CA","EPOCH":"2026-04-05T19:22:54.581088","MEAN_MOTION":15.28108503,"ECCENTRICITY":0.0004121,"INCLINATION":97.3938,"RA_OF_ASC_NODE":177.6643,"ARG_OF_PERICENTER":212.9073,"MEAN_ANOMALY":147.1911,"EPHEMERIS_TYPE":0,"CLASSIFICATION_TYPE":"U","NORAD_CAT_ID":62681,"ELEMENT_SET_NO":999,"REV_AT_EPOCH":12549,"BSTAR":0.00057739,"MEAN_MOTION_DOT":0.0001577,"MEAN_MOTION_DDOT":0},{"OBJECT_NAME":"FLOCK 4G-33","OBJECT_ID":"2025-009CE","EPOCH":"2026-04-05T17:51:23.172480","MEAN_MOTION":15.24615347,"ECCENTRICITY":0.0004905,"INCLINATION":97.3959,"RA_OF_ASC_NODE":176.4901,"ARG_OF_PERICENTER":209.4999,"MEAN_ANOMALY":150.5963,"EPHEMERIS_TYPE":0,"CLASSIFICATION_TYPE":"U","NORAD_CAT_ID":62685,"ELEMENT_SET_NO":999,"REV_AT_EPOCH":6776,"BSTAR":0.00033712,"MEAN_MOTION_DOT":8.249e-5,"MEAN_MOTION_DDOT":0}]
